NORAD_CAT_ID,OBJECT_NAME,OBJECT_TYPE,EPOCH,MEAN_MOTION,ECCENTRICITY,INCLINATION,RA_OF_ASC_NODE,ARG_OF_PERICENTER,MEAN_ANOMALY,BSTAR,MEAN_MOTION_DOT,MEAN_MOTION_DDOT,TLE_LINE0,TLE_LINE1,TLE_LINE2,SEMIMAJOR_AXIS,PERIOD,APOGEE,PERIGEE,DECAYED
51724.0,STARLINK-3529,PAYLOAD,2024-08-19 18:10:59,15.08850992,0.0001426,53.2191,354.1782,107.0349,253.08,0.00047435,7.272e-05,0.0,0 STARLINK-3529,1 51724U 22016L   24232.75763120  .00007272  00000-0  47435-3 0  9998,2 51724  53.2191 354.1782 0001426 107.0349 253.0800 15.08850992138905,6917.847,95.437,540.698,538.725,0.0
51724.0,STARLINK-3529,PAYLOAD,2024-08-20 13:15:36,15.08852654,0.0001712,53.2184,350.6063,109.6634,250.4543,0.00042317,6.455e-05,0.0,0 STARLINK-3529,1 51724U 22016L   24233.55250977  .00006455  00000-0  42317-3 0  9994,2 51724  53.2184 350.6063 0001712 109.6634 250.4543 15.08852654139029,6917.842,95.437,540.891,538.522,0.0
51724.0,STARLINK-3529,PAYLOAD,2024-08-20 14:50:59,15.08853153,0.0001552,53.2187,350.3104,96.1795,263.9374,0.00044477,6.8e-05,0.0,0 STARLINK-3529,1 51724U 22016L   24233.61874985  .00006800  00000-0  44477-3 0  9995,2 51724  53.2187 350.3104 0001552  96.1795 263.9374 15.08853153137962,6917.84,95.437,540.779,538.632,0.0
51724.0,STARLINK-3529,PAYLOAD,2024-08-21 13:06:23,15.08852174,0.0001695,53.2184,346.1484,116.6862,243.4304,0.00026176,3.882e-05,0.0,0 STARLINK-3529,1 51724U 22016L   24234.54610468  .00003882  00000-0  26176-3 0  9995,2 51724  53.2184 346.1484 0001695 116.6862 243.4304 15.08852174139177,6917.843,95.437,540.881,538.536,0.0
51724.0,STARLINK-3529,PAYLOAD,2024-08-21 14:41:46,15.08852481,0.0001573,53.2182,345.8512,116.724,243.3913,0.00027168,4.04e-05,0.0,0 STARLINK-3529,1 51724U 22016L   24234.61234406  .00004040  00000-0  27168-3 0  9996,2 51724  53.2182 345.8512 0001573 116.7240 243.3913 15.08852481138118,6917.842,95.437,540.795,538.619,0.0
